{
    "links": {
        "self": "http://www.neowsapp.com/rest/v1/neo/3989187?api_key=iIulBulltgU6a56xZRHN4H3l9WmuAYTsLGpBGhQ2"
    },
    "id": "3989187",
    "neo_reference_id": "3989187",
    "name": "(2020 BH8)",
    "designation": "2020 BH8",
    "nasa_jpl_url": "http://ssd.jpl.nasa.gov/sbdb.cgi?sstr=3989187",
    "absolute_magnitude_h": 25.24,
    "estimated_diameter": {
        "kilometers": {
            "estimated_diameter_min": 0.0237987955,
            "estimated_diameter_max": 0.0532157244
        },
        "meters": {
            "estimated_diameter_min": 23.7987954683,
            "estimated_diameter_max": 53.2157244498
        },
        "miles": {
            "estimated_diameter_min": 0.0147878813,
            "estimated_diameter_max": 0.0330667079
        },
        "feet": {
            "estimated_diameter_min": 78.0800401242,
            "estimated_diameter_max": 174.5922774037
        }
    },
    "is_potentially_hazardous_asteroid": false,
    "close_approach_data": [
        {
            "close_approach_date": "2020-01-05",
            "close_approach_date_full": "2020-Jan-05 23:58",
            "epoch_date_close_approach": 1578268680000,
            "relative_velocity": {
                "kilometers_per_second": "6.7411388839",
                "kilometers_per_hour": "24268.0999819931",
                "miles_per_hour": "15079.2535693668"
            },
            "miss_distance": {
                "astronomical": "0.0682717868",
                "lunar": "26.5577250652",
                "kilometers": "10213313.886374116",
                "miles": "6346258.9690541608"
            },
            "orbiting_body": "Earth"
        }
    ],
    "orbital_data": {
        "orbit_id": "4",
        "orbit_determination_date": "2020-09-11 07:46:42",
        "first_observation_date": "2020-01-24",
        "last_observation_date": "2020-02-03",
        "data_arc_in_days": 10,
        "observations_used": 36,
        "orbit_uncertainty": "8",
        "minimum_orbit_intersection": ".0680881",
        "jupiter_tisserand_invariant": "3.148",
        "epoch_osculation": "2458874.5",
        "eccentricity": ".5949003034778113",
        "semi_major_axis": "2.578947157869321",
        "inclination": "3.036900707196469",
        "ascending_node_longitude": "315.587331400787",
        "orbital_period": "1512.732342514622",
        "perihelion_distance": "1.044730710999623",
        "perihelion_argument": "145.1987048921062",
        "aphelion_distance": "4.113163604739018",
        "perihelion_time": "2458851.194573045995",
        "mean_anomaly": "5.546224846026059",
        "mean_motion": ".2379799716594743",
        "equinox": "J2000",
        "orbit_class": {
            "orbit_class_type": "AMO",
            "orbit_class_description": "Near-Earth asteroid orbits similar to that of 1221 Amor",
            "orbit_class_range": "1.017 AU < q (perihelion) < 1.3 AU"
        }
    },
    "is_sentry_object": false
}